1 28654U 05018A   24356.52882646  .00000393  00000-0  23252-3 0  9992
2 28654  98.8601  71.8221 0013364 250.3855 109.5875 14.13458666  9643